{"fetched_at":"2026-07-16T06:43:03.373Z","source":"https://celestrak.org/NORAD/elements/gp.php?NAME=JILIN&FORMAT=JSON","constellation":"jilin-1-gaofen","records":[{"OBJECT_NAME":"JILIN-1 GAOFEN 3A","OBJECT_ID":"2019-032C","EPOCH":"2026-07-15T21:19:06.192768","CLASSIFICATION_TYPE":"U","MEAN_MOTION":15.33198346,"ECCENTRICITY":0.00047688,"INCLINATION":44.9724,"RA_OF_ASC_NODE":198.9037,"ARG_OF_PERICENTER":109.4883,"MEAN_ANOMALY":250.6517,"EPHEMERIS_TYPE":0,"NORAD_CAT_ID":44312,"ELEMENT_SET_NO":999,"REV_AT_EPOCH":39224,"BSTAR":0.00019111081,"MEAN_MOTION_DOT":0.00005942,"MEAN_MOTION_DDOT":0},{"OBJECT_NAME":"JILIN-1 GAOFEN 2A","OBJECT_ID":"2019-075A","EPOCH":"2026-07-15T22:13:12.646848","CLASSIFICATION_TYPE":"U","MEAN_MOTION":15.40025444,"ECCENTRICITY":0.0005112,"INCLINATION":97.4966,"RA_OF_ASC_NODE":281.4015,"ARG_OF_PERICENTER":352.283,"MEAN_ANOMALY":7.8336,"EPHEMERIS_TYPE":0,"NORAD_CAT_ID":44777,"ELEMENT_SET_NO":999,"REV_AT_EPOCH":36930,"BSTAR":0.00019745288,"MEAN_MOTION_DOT":0.000078,"MEAN_MOTION_DDOT":0},{"OBJECT_NAME":"JILIN-1 GAOFEN 2B","OBJECT_ID":"2019-086A","EPOCH":"2026-07-15T21:34:52.660704","CLASSIFICATION_TYPE":"U","MEAN_MOTION":15.21003998,"ECCENTRICITY":0.00132905,"INCLINATION":97.4874,"RA_OF_ASC_NODE":268.714,"ARG_OF_PERICENTER":213.1424,"MEAN_ANOMALY":146.898,"EPHEMERIS_TYPE":0,"NORAD_CAT_ID":44836,"ELEMENT_SET_NO":999,"REV_AT_EPOCH":36485,"BSTAR":0.00014985149,"MEAN_MOTION_DOT":0.00003259,"MEAN_MOTION_DDOT":0},{"OBJECT_NAME":"JILIN-1 GAOFEN 3E","OBJECT_ID":"2020-065D","EPOCH":"2026-07-15T22:08:14.281728","CLASSIFICATION_TYPE":"U","MEAN_MOTION":15.67297956,"ECCENTRICITY":0.0010154,"INCLINATION":97.2207,"RA_OF_ASC_NODE":250.2675,"ARG_OF_PERICENTER":69.9446,"MEAN_ANOMALY":290.2907,"EPHEMERIS_TYPE":0,"NORAD_CAT_ID":46457,"ELEMENT_SET_NO":999,"REV_AT_EPOCH":32425,"BSTAR":0.00045311624,"MEAN_MOTION_DOT":0.00048907,"MEAN_MOTION_DDOT":0},{"OBJECT_NAME":"JILIN-1 GAOFEN 3F","OBJECT_ID":"2020-065E","EPOCH":"2026-07-15T22:31:27.130944","CLASSIFICATION_TYPE":"U","MEAN_MOTION":15.64002865,"ECCENTRICITY":0.00114284,"INCLINATION":97.2164,"RA_OF_ASC_NODE":247.4705,"ARG_OF_PERICENTER":55.6222,"MEAN_ANOMALY":304.6117,"EPHEMERIS_TYPE":0,"NORAD_CAT_ID":46458,"ELEMENT_SET_NO":999,"REV_AT_EPOCH":32419,"BSTAR":0.00044258468,"MEAN_MOTION_DOT":0.00041882,"MEAN_MOTION_DDOT":0},{"OBJECT_NAME":"JILIN-1 GAOFEN 3G","OBJECT_ID":"2020-065F","EPOCH":"2026-07-15T22:41:32.076096","CLASSIFICATION_TYPE":"U","MEAN_MOTION":15.7705314,"ECCENTRICITY":0.00054246,"INCLINATION":97.2218,"RA_OF_ASC_NODE":254.8161,"ARG_OF_PERICENTER":269.4843,"MEAN_ANOMALY":90.5802,"EPHEMERIS_TYPE":0,"NORAD_CAT_ID":46459,"ELEMENT_SET_NO":999,"REV_AT_EPOCH":32446,"BSTAR":0.00051763046,"MEAN_MOTION_DOT":0.0008451,"MEAN_MOTION_DDOT":0},{"OBJECT_NAME":"JILIN-1 GAOFEN 3H","OBJECT_ID":"2020-065G","EPOCH":"2026-07-15T22:15:43.485696","CLASSIFICATION_TYPE":"U","MEAN_MOTION":15.72360627,"ECCENTRICITY":0.00065216,"INCLINATION":97.2166,"RA_OF_ASC_NODE":250.9263,"ARG_OF_PERICENTER":199.5293,"MEAN_ANOMALY":160.5722,"EPHEMERIS_TYPE":0,"NORAD_CAT_ID":46460,"ELEMENT_SET_NO":999,"REV_AT_EPOCH":32439,"BSTAR":0.0004758771,"MEAN_MOTION_DOT":0.00063317,"MEAN_MOTION_DDOT":0},{"OBJECT_NAME":"JILIN-1 GAOFEN 2D","OBJECT_ID":"2021-086A","EPOCH":"2026-07-15T21:43:37.699680","CLASSIFICATION_TYPE":"U","MEAN_MOTION":15.10868001,"ECCENTRICITY":0.00339805,"INCLINATION":97.651,"RA_OF_ASC_NODE":319.6109,"ARG_OF_PERICENTER":48.3044,"MEAN_ANOMALY":312.1084,"EPHEMERIS_TYPE":0,"NORAD_CAT_ID":49256,"ELEMENT_SET_NO":999,"REV_AT_EPOCH":26505,"BSTAR":0.000128081,"MEAN_MOTION_DOT":0.00002092,"MEAN_MOTION_DDOT":0},{"OBJECT_NAME":"JILIN-1 GAOFEN 2F","OBJECT_ID":"2021-097A","EPOCH":"2026-07-15T21:39:13.008960","CLASSIFICATION_TYPE":"U","MEAN_MOTION":15.07950637,"ECCENTRICITY":0.00197724,"INCLINATION":97.6734,"RA_OF_ASC_NODE":323.0385,"ARG_OF_PERICENTER":127.5856,"MEAN_ANOMALY":232.7171,"EPHEMERIS_TYPE":0,"NORAD_CAT_ID":49338,"ELEMENT_SET_NO":999,"REV_AT_EPOCH":26064,"BSTAR":0.00017333973,"MEAN_MOTION_DOT":0.0000261,"MEAN_MOTION_DDOT":0},{"OBJECT_NAME":"JILIN-1 GAOFEN 3D27","OBJECT_ID":"2022-048B","EPOCH":"2026-07-15T22:10:49.914912","CLASSIFICATION_TYPE":"U","MEAN_MOTION":15.83261741,"ECCENTRICITY":0.0005291,"INCLINATION":97.5733,"RA_OF_ASC_NODE":313.641,"ARG_OF_PERICENTER":242.5391,"MEAN_ANOMALY":117.534,"EPHEMERIS_TYPE":0,"NORAD_CAT_ID":52444,"ELEMENT_SET_NO":999,"REV_AT_EPOCH":23401,"BSTAR":0.00060379123,"MEAN_MOTION_DOT":0.0013142,"MEAN_MOTION_DDOT":0},{"OBJECT_NAME":"JILIN-1 GAOFEN 3D28","OBJECT_ID":"2022-048C","EPOCH":"2026-07-15T21:58:18.281568","CLASSIFICATION_TYPE":"U","MEAN_MOTION":15.88363578,"ECCENTRICITY":0.00050528,"INCLINATION":97.5664,"RA_OF_ASC_NODE":313.9385,"ARG_OF_PERICENTER":240.2978,"MEAN_ANOMALY":119.7791,"EPHEMERIS_TYPE":0,"NORAD_CAT_ID":52445,"ELEMENT_SET_NO":999,"REV_AT_EPOCH":23407,"BSTAR":0.00063015377,"MEAN_MOTION_DOT":0.00176155,"MEAN_MOTION_DDOT":0},{"OBJECT_NAME":"JILIN-1 GAOFEN 3D29","OBJECT_ID":"2022-048D","EPOCH":"2026-07-15T21:48:59.175072","CLASSIFICATION_TYPE":"U","MEAN_MOTION":15.83469921,"ECCENTRICITY":0.00044306,"INCLINATION":97.5728,"RA_OF_ASC_NODE":313.9906,"ARG_OF_PERICENTER":225.8741,"MEAN_ANOMALY":134.2164,"EPHEMERIS_TYPE":0,"NORAD_CAT_ID":52446,"ELEMENT_SET_NO":999,"REV_AT_EPOCH":23403,"BSTAR":0.00058192014,"MEAN_MOTION_DOT":0.00127809,"MEAN_MOTION_DDOT":0},{"OBJECT_NAME":"JILIN-1 GAOFEN 3D31","OBJECT_ID":"2022-048F","EPOCH":"2026-07-15T22:22:59.702016","CLASSIFICATION_TYPE":"U","MEAN_MOTION":15.9438038,"ECCENTRICITY":0.00057077,"INCLINATION":97.5708,"RA_OF_ASC_NODE":315.3779,"ARG_OF_PERICENTER":241.7762,"MEAN_ANOMALY":118.2937,"EPHEMERIS_TYPE":0,"NORAD_CAT_ID":52448,"ELEMENT_SET_NO":999,"REV_AT_EPOCH":23414,"BSTAR":0.00069387189,"MEAN_MOTION_DOT":0.00258288,"MEAN_MOTION_DDOT":0.000027874511},{"OBJECT_NAME":"JILIN-1 GAOFEN 03D09","OBJECT_ID":"2022-098B","EPOCH":"2026-07-15T22:06:34.401600","CLASSIFICATION_TYPE":"U","MEAN_MOTION":15.70339955,"ECCENTRICITY":0.00034993,"INCLINATION":97.5636,"RA_OF_ASC_NODE":328.8345,"ARG_OF_PERICENTER":231.0964,"MEAN_ANOMALY":128.9986,"EPHEMERIS_TYPE":0,"NORAD_CAT_ID":53445,"ELEMENT_SET_NO":999,"REV_AT_EPOCH":21913,"BSTAR":0.00045627463,"MEAN_MOTION_DOT":0.00055685,"MEAN_MOTION_DDOT":0},{"OBJECT_NAME":"JILIN-1 GAOFEN 03D43","OBJECT_ID":"2022-098E","EPOCH":"2026-07-15T23:01:03.523584","CLASSIFICATION_TYPE":"U","MEAN_MOTION":15.74111727,"ECCENTRICITY":0.00036761,"INCLINATION":97.5616,"RA_OF_ASC_NODE":330.0405,"ARG_OF_PERICENTER":225.2063,"MEAN_ANOMALY":134.8902,"EPHEMERIS_TYPE":0,"NORAD_CAT_ID":53448,"ELEMENT_SET_NO":999,"REV_AT_EPOCH":21921,"BSTAR":0.00043712491,"MEAN_MOTION_DOT":0.00062591,"MEAN_MOTION_DDOT":0},{"OBJECT_NAME":"JILIN-1 GAOFEN 03D08","OBJECT_ID":"2022-155A","EPOCH":"2026-07-15T23:32:51.327168","CLASSIFICATION_TYPE":"U","MEAN_MOTION":15.67619383,"ECCENTRICITY":0.00043179,"INCLINATION":97.6239,"RA_OF_ASC_NODE":344.7559,"ARG_OF_PERICENTER":224.9266,"MEAN_ANOMALY":135.1645,"EPHEMERIS_TYPE":0,"NORAD_CAT_ID":54251,"ELEMENT_SET_NO":999,"REV_AT_EPOCH":20432,"BSTAR":0.0003678985,"MEAN_MOTION_DOT":0.0004007,"MEAN_MOTION_DDOT":0}]}
