JILIN-1 GAOFEN 3A       
1 44312U 19032C   26196.88826612  .00005942  00000+0  19111-3 0  9999
2 44312  44.9724 198.9037 0004768 109.4883 250.6517 15.33198346392240
JILIN-1 GAOFEN 2A       
1 44777U 19075A   26196.92584082  .00007800  00000+0  19745-3 0  9996
2 44777  97.4966 281.4015 0005112 352.2830   7.8336 15.40025444369302
JILIN-1 GAOFEN 2B       
1 44836U 19086A   26196.89922061  .00003259  00000+0  14985-3 0  9998
2 44836  97.4874 268.7140 0013290 213.1424 146.8980 15.21003998364856
JILIN-1 GAOFEN 3E       
1 46457U 20065D   26196.92238752  .00048907  00000+0  45312-3 0  9996
2 46457  97.2207 250.2675 0010154  69.9446 290.2907 15.67297956324253
JILIN-1 GAOFEN 3F       
1 46458U 20065E   26196.93850846  .00041882  00000+0  44258-3 0  9995
2 46458  97.2164 247.4705 0011428  55.6222 304.6117 15.64002865324193
JILIN-1 GAOFEN 3G       
1 46459U 20065F   26196.94551014  .00084510  00000+0  51763-3 0  9996
2 46459  97.2218 254.8161 0005424 269.4843  90.5802 15.77053140324463
JILIN-1 GAOFEN 3H       
1 46460U 20065G   26196.92758664  .00063317  00000+0  47588-3 0  9998
2 46460  97.2166 250.9263 0006521 199.5293 160.5722 15.72360627324395
JILIN-1 GAOFEN 2D       
1 49256U 21086A   26196.90529745  .00002092  00000+0  12808-3 0  9992
2 49256  97.6510 319.6109 0033980  48.3044 312.1084 15.10868001265058
JILIN-1 GAOFEN 2F       
1 49338U 21097A   26196.90223390  .00002610  00000+0  17334-3 0  9997
2 49338  97.6734 323.0385 0019772 127.5856 232.7171 15.07950637260643
JILIN-1 GAOFEN 3D27     
1 52444U 22048B   26196.92418883  .00131420  00000+0  60379-3 0  9990
2 52444  97.5733 313.6410 0005291 242.5391 117.5340 15.83261741234015
JILIN-1 GAOFEN 3D28     
1 52445U 22048C   26196.91548937  .00176155  00000+0  63015-3 0  9998
2 52445  97.5664 313.9385 0005052 240.2978 119.7791 15.88363578234070
JILIN-1 GAOFEN 3D29     
1 52446U 22048D   26196.90901823  .00127809  00000+0  58192-3 0  9997
2 52446  97.5728 313.9906 0004430 225.8741 134.2164 15.83469921234033
JILIN-1 GAOFEN 3D31     
1 52448U 22048F   26196.93263544  .00258288  27875-4  69387-3 0  9991
2 52448  97.5708 315.3779 0005707 241.7762 118.2937 15.94380380234140
JILIN-1 GAOFEN 03D09    
1 53445U 22098B   26196.92123150  .00055685  00000+0  45627-3 0  9994
2 53445  97.5636 328.8345 0003499 231.0964 128.9986 15.70339955219138
JILIN-1 GAOFEN 03D43    
1 53448U 22098E   26196.95906856  .00062591  00000+0  43712-3 0  9999
2 53448  97.5616 330.0405 0003676 225.2063 134.8902 15.74111727219215
JILIN-1 GAOFEN 03D08    
1 54251U 22155A   26196.98114962  .00040070  00000+0  36790-3 0  9994
2 54251  97.6239 344.7559 0004317 224.9266 135.1645 15.67619383204323
